{
  "type": "FeatureCollection",
  "features": [
    {
      "type": "Feature",
      "properties": {
        "DISTRICT": "1"
      },
      "geometry": {
        "type": "Polygon",
        "coordinates": [
          [
            [
              103.86052790000001,
              1.26602231
            ],
            [
              103.8394399,
              1.279720594
            ],
            [
              103.8399449,
              1.282055295
            ],
            [
              103.8419839,
              1.28924403
            ],
            [
              103.8626708,
              1.299661688
            ],
            [
              103.863637,
              1.299766835
            ],
            [
              103.87699509999999,
              1.2939658859999998
            ],
            [
              103.8779096,
              1.283548904
            ],
            [
              103.86052790000001,
              1.26602231
            ]
          ]
        ]
      }
    },
    {
      "type": "Feature",
      "properties": {
        "DISTRICT": "2"
      },
      "geometry": {
        "type": "Polygon",
        "coordinates": [
          [
            [
              103.8366676,
              1.271869058
            ],
            [
              103.8318075,
              1.273822878
            ],
            [
              103.8423677,
              1.282583862
            ],
            [
              103.8424745,
              1.282479002
            ],
            [
              103.8442819,
              1.279935241
            ],
            [
              103.8482685,
              1.273980721
            ],
            [
              103.8474312,
              1.272746908
            ],
            [
              103.8423384,
              1.27142903
            ],
            [
              103.839773,
              1.271440012
            ],
            [
              103.8366676,
              1.271869058
            ]
          ]
        ]
      }
    },
    {
      "type": "Feature",
      "properties": {
        "DISTRICT": "3"
      },
      "geometry": {
        "type": "Polygon",
        "coordinates": [
          [
            [
              103.7960772,
              1.298984374
            ],
            [
              103.79476559999999,
              1.306456477
            ],
            [
              103.7948992,
              1.306791847
            ],
            [
              103.79959129999999,
              1.308226033
            ],
            [
              103.800214,
              1.30834597
            ],
            [
              103.8413851,
              1.290242596
            ],
            [
              103.84202979999999,
              1.287403008
            ],
            [
              103.8418228,
              1.285821822
            ],
            [
              103.8415545,
              1.284018895
            ],
            [
              103.8409272,
              1.282935729
            ],
            [
              103.83694840000001,
              1.27715399
            ],
            [
              103.8354926,
              1.276108467
            ],
            [
              103.8305265,
              1.275379621
            ],
            [
              103.8025755,
              1.284737166
            ],
            [
              103.7994448,
              1.2881222159999999
            ],
            [
              103.7960772,
              1.298984374
            ]
          ]
        ]
      }
    },
    {
      "type": "Feature",
      "properties": {
        "DISTRICT": "4"
      },
      "geometry": {
        "type": "Polygon",
        "coordinates": [
          [
            [
              103.8080592,
              1.25959019
            ],
            [
              103.8026316,
              1.272254177
            ],
            [
              103.8030238,
              1.2822013540000001
            ],
            [
              103.80552209999999,
              1.283148426
            ],
            [
              103.806812,
              1.283206174
            ],
            [
              103.8104737,
              1.283021205
            ],
            [
              103.8112907,
              1.282925294
            ],
            [
              103.8121373,
              1.282701069
            ],
            [
              103.81419759999999,
              1.281886753
            ],
            [
              103.8255494,
              1.2770075029999999
            ],
            [
              103.83328900000001,
              1.271893825
            ],
            [
              103.84802509999999,
              1.25150382
            ],
            [
              103.8615865,
              1.222919075
            ],
            [
              103.8493106,
              1.216098654
            ],
            [
              103.8113133,
              1.254619987
            ],
            [
              103.8086488,
              1.258539755
            ],
            [
              103.8080592,
              1.25959019
            ]
          ]
        ]
      }
    },
    {
      "type": "Feature",
      "properties": {
        "DISTRICT": "5"
      },
      "geometry": {
        "type": "Polygon",
        "coordinates": [
          [
            [
              103.7753956,
              1.209663413
            ],
            [
              103.744546,
              1.235815215
            ],
            [
              103.7481796,
              1.313235508
            ],
            [
              103.7508219,
              1.317969193
            ],
            [
              103.75401459999999,
              1.3232055759999999
            ],
            [
              103.76143859999999,
              1.329807493
            ],
            [
              103.77189109999999,
              1.324917987
            ],
            [
              103.7913118,
              1.306307846
            ],
            [
              103.79170959999999,
              1.305667179
            ],
            [
              103.794886,
              1.300494949
            ],
            [
              103.79854509999998,
              1.294048214
            ],
            [
              103.79857940000001,
              1.293946766
            ],
            [
              103.80433590000001,
              1.2736927120000001
            ],
            [
              103.8049864,
              1.265216304
            ],
            [
              103.79795370000001,
              1.204652067
            ],
            [
              103.7753956,
              1.209663413
            ]
          ]
        ]
      }
    },
    {
      "type": "Feature",
      "properties": {
        "DISTRICT": "6"
      },
      "geometry": {
        "type": "Polygon",
        "coordinates": [
          [
            [
              103.84392530000001,
              1.292077395
            ],
            [
              103.8438063,
              1.292530812
            ],
            [
              103.845001,
              1.297498665
            ],
            [
              103.8488508,
              1.297925265
            ],
            [
              103.84902840000001,
              1.2978055640000001
            ],
            [
              103.85365959999999,
              1.2941525170000001
            ],
            [
              103.8537071,
              1.292114309
            ],
            [
              103.8514394,
              1.287304083
            ],
            [
              103.8455283,
              1.2898924390000002
            ],
            [
              103.8450548,
              1.2901481240000001
            ],
            [
              103.84392530000001,
              1.292077395
            ]
          ]
        ]
      }
    },
    {
      "type": "Feature",
      "properties": {
        "DISTRICT": "7"
      },
      "geometry": {
        "type": "Polygon",
        "coordinates": [
          [
            [
              103.8493161,
              1.298583037
            ],
            [
              103.8492464,
              1.300046856
            ],
            [
              103.8499522,
              1.303782824
            ],
            [
              103.8500142,
              1.304085658
            ],
            [
              103.8502244,
              1.304548064
            ],
            [
              103.850383,
              1.304849103
            ],
            [
              103.86430849999999,
              1.306311852
            ],
            [
              103.86760679999999,
              1.303720059
            ],
            [
              103.8555839,
              1.293094086
            ],
            [
              103.85446340000001,
              1.293403072
            ],
            [
              103.8518526,
              1.294124244
            ],
            [
              103.8506403,
              1.295747535
            ],
            [
              103.8493161,
              1.298583037
            ]
          ]
        ]
      }
    },
    {
      "type": "Feature",
      "properties": {
        "DISTRICT": "8"
      },
      "geometry": {
        "type": "Polygon",
        "coordinates": [
          [
            [
              103.8482085,
              1.3079965820000001
            ],
            [
              103.84597690000001,
              1.313964575
            ],
            [
              103.8459995,
              1.314299546
            ],
            [
              103.84676490000001,
              1.315117996
            ],
            [
              103.8486416,
              1.316564714
            ],
            [
              103.85159370000001,
              1.318021994
            ],
            [
              103.85775079999999,
              1.316477524
            ],
            [
              103.8583363,
              1.316214565
            ],
            [
              103.8585135,
              1.316061812
            ],
            [
              103.8588048,
              1.315704327
            ],
            [
              103.862734,
              1.310381739
            ],
            [
              103.86317199999999,
              1.309435341
            ],
            [
              103.8634371,
              1.308829483
            ],
            [
              103.8629385,
              1.307506571
            ],
            [
              103.86259390000001,
              1.30659564
            ],
            [
              103.86257109999998,
              1.306538293
            ],
            [
              103.85464,
              1.30381133
            ],
            [
              103.8539834,
              1.303754247
            ],
            [
              103.85212290000001,
              1.304657884
            ],
            [
              103.8514743,
              1.305104362
            ],
            [
              103.849956,
              1.306247229
            ],
            [
              103.8482085,
              1.3079965820000001
            ]
          ]
        ]
      }
    },
    {
      "type": "Feature",
      "properties": {
        "DISTRICT": "9"
      },
      "geometry": {
        "type": "Polygon",
        "coordinates": [
          [
            [
              103.8285437,
              1.300484447
            ],
            [
              103.8281644,
              1.307668609
            ],
            [
              103.8281644,
              1.307668615
            ],
            [
              103.8377146,
              1.313992863
            ],
            [
              103.84529520000001,
              1.3135059359999999
            ],
            [
              103.8462747,
              1.312379197
            ],
            [
              103.8500936,
              1.307698447
            ],
            [
              103.8500665,
              1.30484521
            ],
            [
              103.8495537,
              1.30101841
            ],
            [
              103.84841390000001,
              1.29745012
            ],
            [
              103.8423328,
              1.291477744
            ],
            [
              103.8420037,
              1.291203528
            ],
            [
              103.8385517,
              1.289841027
            ],
            [
              103.8379051,
              1.289847269
            ],
            [
              103.8339571,
              1.290884399
            ],
            [
              103.831928,
              1.293154929
            ],
            [
              103.8285437,
              1.300484447
            ]
          ]
        ]
      }
    },
    {
      "type": "Feature",
      "properties": {
        "DISTRICT": "10"
      },
      "geometry": {
        "type": "Polygon",
        "coordinates": [
          [
            [
              103.7786162,
              1.313670358
            ],
            [
              103.7760882,
              1.316079983
            ],
            [
              103.7861924,
              1.33207747
            ],
            [
              103.7876228,
              1.332543871
            ],
            [
              103.7897775,
              1.333060006
            ],
            [
              103.7906832,
              1.332951335
            ],
            [
              103.7969693,
              1.330960581
            ],
            [
              103.8320535,
              1.318088962
            ],
            [
              103.834351,
              1.317114986
            ],
            [
              103.8354876,
              1.3164396329999999
            ],
            [
              103.8354929,
              1.316434957
            ],
            [
              103.8367181,
              1.315177823
            ],
            [
              103.8376475,
              1.313121738
            ],
            [
              103.83118929999999,
              1.292342232
            ],
            [
              103.8309733,
              1.292311133
            ],
            [
              103.8165698,
              1.2919741759999999
            ],
            [
              103.8159975,
              1.292044062
            ],
            [
              103.78404880000001,
              1.308694738
            ],
            [
              103.783839,
              1.308819853
            ],
            [
              103.7786162,
              1.313670358
            ]
          ]
        ]
      }
    },
    {
      "type": "Feature",
      "properties": {
        "DISTRICT": "11"
      },
      "geometry": {
        "type": "Polygon",
        "coordinates": [
          [
            [
              103.7893563,
              1.335741145
            ],
            [
              103.7893497,
              1.336557304
            ],
            [
              103.78943670000001,
              1.346630715
            ],
            [
              103.78967259999999,
              1.3472004830000002
            ],
            [
              103.789956,
              1.3477613919999998
            ],
            [
              103.7902814,
              1.348105612
            ],
            [
              103.7904736,
              1.348263789
            ],
            [
              103.7909662,
              1.34849139
            ],
            [
              103.79113559999999,
              1.348561235
            ],
            [
              103.79142790000002,
              1.3486716680000002
            ],
            [
              103.83780379999999,
              1.341260422
            ],
            [
              103.8387411,
              1.3411028329999999
            ],
            [
              103.839899,
              1.340427023
            ],
            [
              103.8501269,
              1.324792295
            ],
            [
              103.85122870000001,
              1.320020484
            ],
            [
              103.85032070000001,
              1.318444177
            ],
            [
              103.8447672,
              1.314015448
            ],
            [
              103.8403875,
              1.313693156
            ],
            [
              103.8110029,
              1.32452635
            ],
            [
              103.7895076,
              1.33426884
            ],
            [
              103.7894339,
              1.334818377
            ],
            [
              103.7893681,
              1.335572184
            ],
            [
              103.7893563,
              1.335741145
            ]
          ]
        ]
      }
    },
    {
      "type": "Feature",
      "properties": {
        "DISTRICT": "12"
      },
      "geometry": {
        "type": "Polygon",
        "coordinates": [
          [
            [
              103.8431651,
              1.320594777
            ],
            [
              103.83947490000001,
              1.335108024
            ],
            [
              103.8431982,
              1.342899455
            ],
            [
              103.8469171,
              1.343613823
            ],
            [
              103.8558726,
              1.3427643319999998
            ],
            [
              103.8569718,
              1.342621808
            ],
            [
              103.8607603,
              1.338728685
            ],
            [
              103.8739145,
              1.320909592
            ],
            [
              103.87405679999999,
              1.320709666
            ],
            [
              103.8743042,
              1.32034907
            ],
            [
              103.8744374,
              1.320147486
            ],
            [
              103.8692202,
              1.309638042
            ],
            [
              103.86708780000001,
              1.307104742
            ],
            [
              103.8660694,
              1.306059801
            ],
            [
              103.84325279999999,
              1.320475975
            ],
            [
              103.8431651,
              1.320594777
            ]
          ]
        ]
      }
    },
    {
      "type": "Feature",
      "properties": {
        "DISTRICT": "13"
      },
      "geometry": {
        "type": "Polygon",
        "coordinates": [
          [
            [
              103.8604936,
              1.34728115
            ],
            [
              103.8604218,
              1.348125738
            ],
            [
              103.86045290000001,
              1.3485702080000002
            ],
            [
              103.8604699,
              1.34864793
            ],
            [
              103.86049059999999,
              1.348730114
            ],
            [
              103.8606583,
              1.348806336
            ],
            [
              103.86077890000001,
              1.34885748
            ],
            [
              103.8631467,
              1.34936626
            ],
            [
              103.8633895,
              1.349394421
            ],
            [
              103.8702681,
              1.348811829
            ],
            [
              103.88128859999999,
              1.341328032
            ],
            [
              103.88620390000001,
              1.337923045
            ],
            [
              103.8873058,
              1.336379845
            ],
            [
              103.8882127,
              1.3343553879999999
            ],
            [
              103.88940179999999,
              1.329253987
            ],
            [
              103.89025749999999,
              1.32356831
            ],
            [
              103.89003790000001,
              1.323460427
            ],
            [
              103.8881032,
              1.322734769
            ],
            [
              103.8775843,
              1.320407099
            ],
            [
              103.8759392,
              1.3214808409999999
            ],
            [
              103.8749495,
              1.322172092
            ],
            [
              103.86574350000001,
              1.32958585
            ],
            [
              103.8654874,
              1.329817527
            ],
            [
              103.86348129999999,
              1.332788888
            ],
            [
              103.86265379999999,
              1.335481474
            ],
            [
              103.860692,
              1.3454868480000002
            ],
            [
              103.86055019999999,
              1.3466676480000002
            ],
            [
              103.8604936,
              1.34728115
            ]
          ]
        ]
      }
    },
    {
      "type": "Feature",
      "properties": {
        "DISTRICT": "14"
      },
      "geometry": {
        "type": "Polygon",
        "coordinates": [
          [
            [
              103.86990390000001,
              1.304352371
            ],
            [
              103.8697431,
              1.3129175709999998
            ],
            [
              103.8699725,
              1.315260173
            ],
            [
              103.87859559999998,
              1.325463249
            ],
            [
              103.87916700000001,
              1.326006496
            ],
            [
              103.8800308,
              1.326747443
            ],
            [
              103.8805968,
              1.327204568
            ],
            [
              103.89818079999999,
              1.339617408
            ],
            [
              103.9109101,
              1.34182084
            ],
            [
              103.91748299999999,
              1.3417811240000002
            ],
            [
              103.91936020000001,
              1.321868645
            ],
            [
              103.9193499,
              1.321804877
            ],
            [
              103.9191485,
              1.320939382
            ],
            [
              103.8787657,
              1.300879581
            ],
            [
              103.87433229999999,
              1.300587755
            ],
            [
              103.8729052,
              1.301211186
            ],
            [
              103.86990390000001,
              1.304352371
            ]
          ]
        ]
      }
    },
    {
      "type": "Feature",
      "properties": {
        "DISTRICT": "15"
      },
      "geometry": {
        "type": "Polygon",
        "coordinates": [
          [
            [
              103.8670242,
              1.2949881909999998
            ],
            [
              103.8664189,
              1.296479019
            ],
            [
              103.8668988,
              1.2970862859999999
            ],
            [
              103.893524,
              1.315946115
            ],
            [
              103.9244469,
              1.3226401540000001
            ],
            [
              103.9250738,
              1.3227472009999999
            ],
            [
              103.9252677,
              1.32270447
            ],
            [
              103.93146440000001,
              1.31662287
            ],
            [
              103.9330338,
              1.314589355
            ],
            [
              103.9338,
              1.312167055
            ],
            [
              103.9347135,
              1.306223412
            ],
            [
              103.8996929,
              1.296901696
            ],
            [
              103.88995200000001,
              1.2949810959999999
            ],
            [
              103.88793100000001,
              1.294753969
            ],
            [
              103.8684015,
              1.292963712
            ],
            [
              103.8670242,
              1.2949881909999998
            ]
          ]
        ]
      }
    },
    {
      "type": "Feature",
      "properties": {
        "DISTRICT": "16"
      },
      "geometry": {
        "type": "Polygon",
        "coordinates": [
          [
            [
              103.90926520000001,
              1.328491877
            ],
            [
              103.9079959,
              1.3312093809999999
            ],
            [
              103.9080078,
              1.3312991109999999
            ],
            [
              103.9115458,
              1.335576195
            ],
            [
              103.9184075,
              1.339229524
            ],
            [
              103.9307501,
              1.3429405769999998
            ],
            [
              103.9637848,
              1.351417689
            ],
            [
              103.97373499999999,
              1.338738881
            ],
            [
              103.97077929999999,
              1.327528826
            ],
            [
              103.9682321,
              1.318861942
            ],
            [
              103.960189,
              1.3141240159999998
            ],
            [
              103.95512120000001,
              1.312383331
            ],
            [
              103.9406431,
              1.308375833
            ],
            [
              103.9351207,
              1.306894678
            ],
            [
              103.90926520000001,
              1.328491877
            ]
          ]
        ]
      }
    },
    {
      "type": "Feature",
      "properties": {
        "DISTRICT": "17"
      },
      "geometry": {
        "type": "Polygon",
        "coordinates": [
          [
            [
              103.96961590000001,
              1.320199249
            ],
            [
              103.92924659999998,
              1.420280079
            ],
            [
              103.97119190000001,
              1.418679009
            ],
            [
              104.058521,
              1.408078034
            ],
            [
              104.05926579999999,
              1.39446459
            ],
            [
              104.0217825,
              1.3167647009999999
            ],
            [
              104.0027305,
              1.3108902709999999
            ],
            [
              103.97747209999999,
              1.316129642
            ],
            [
              103.9741411,
              1.317626184
            ],
            [
              103.96961590000001,
              1.320199249
            ]
          ]
        ]
      }
    },
    {
      "type": "Feature",
      "properties": {
        "DISTRICT": "18"
      },
      "geometry": {
        "type": "Polygon",
        "coordinates": [
          [
            [
              103.9204509,
              1.375984385
            ],
            [
              103.919958,
              1.378682182
            ],
            [
              103.9296536,
              1.4005819519999998
            ],
            [
              103.96166540000002,
              1.378617446
            ],
            [
              103.96449670000001,
              1.371407789
            ],
            [
              103.9653691,
              1.3653747809999999
            ],
            [
              103.9628452,
              1.348528217
            ],
            [
              103.9587144,
              1.340770094
            ],
            [
              103.9578235,
              1.340210296
            ],
            [
              103.9570428,
              1.339875085
            ],
            [
              103.9568055,
              1.339775652
            ],
            [
              103.9565529,
              1.339724487
            ],
            [
              103.9503434,
              1.33853568
            ],
            [
              103.94141280000001,
              1.337896526
            ],
            [
              103.93298399999999,
              1.343006715
            ],
            [
              103.93243249999999,
              1.343404188
            ],
            [
              103.92627259999999,
              1.347937245
            ],
            [
              103.9260782,
              1.348119773
            ],
            [
              103.9255895,
              1.348593104
            ],
            [
              103.9204509,
              1.375984385
            ]
          ]
        ]
      }
    },
    {
      "type": "Feature",
      "properties": {
        "DISTRICT": "19"
      },
      "geometry": {
        "type": "Polygon",
        "coordinates": [
          [
            [
              103.8594955,
              1.3476835569999999
            ],
            [
              103.8402739,
              1.368778389
            ],
            [
              103.90030250000001,
              1.41744807
            ],
            [
              103.9015998,
              1.4184391140000001
            ],
            [
              103.9019125,
              1.418653133
            ],
            [
              103.90235820000001,
              1.41892697
            ],
            [
              103.9028157,
              1.4191686069999998
            ],
            [
              103.90400670000001,
              1.419657102
            ],
            [
              103.9101818,
              1.4213220869999998
            ],
            [
              103.9120024,
              1.4208897180000002
            ],
            [
              103.9126627,
              1.419938088
            ],
            [
              103.9133772,
              1.4186568169999998
            ],
            [
              103.9260275,
              1.392162673
            ],
            [
              103.9252209,
              1.384539131
            ],
            [
              103.92012820000001,
              1.3463685069999998
            ],
            [
              103.8897521,
              1.333290215
            ],
            [
              103.8594955,
              1.3476835569999999
            ]
          ]
        ]
      }
    },
    {
      "type": "Feature",
      "properties": {
        "DISTRICT": "20"
      },
      "geometry": {
        "type": "Polygon",
        "coordinates": [
          [
            [
              103.8369109,
              1.34160392
            ],
            [
              103.8124504,
              1.3573277609999999
            ],
            [
              103.8266371,
              1.376463472
            ],
            [
              103.8267295,
              1.376576101
            ],
            [
              103.8267693,
              1.376623146
            ],
            [
              103.8269473,
              1.376772996
            ],
            [
              103.8427356,
              1.387871127
            ],
            [
              103.8460337,
              1.3901176569999998
            ],
            [
              103.84718509999999,
              1.390880544
            ],
            [
              103.847661,
              1.391050485
            ],
            [
              103.8492723,
              1.391603032
            ],
            [
              103.85068509999999,
              1.391809789
            ],
            [
              103.8753898,
              1.377923456
            ],
            [
              103.8753898,
              1.3779234519999999
            ],
            [
              103.8604283,
              1.341039873
            ],
            [
              103.8409875,
              1.339920483
            ],
            [
              103.8369109,
              1.34160392
            ]
          ]
        ]
      }
    },
    {
      "type": "Feature",
      "properties": {
        "DISTRICT": "21"
      },
      "geometry": {
        "type": "Polygon",
        "coordinates": [
          [
            [
              103.7754012,
              1.31655092
            ],
            [
              103.75147829999999,
              1.330770054
            ],
            [
              103.76374240000001,
              1.358320109
            ],
            [
              103.7658107,
              1.3600568180000001
            ],
            [
              103.79624759999999,
              1.355600177
            ],
            [
              103.79058640000001,
              1.332986529
            ],
            [
              103.77933370000001,
              1.319018289
            ],
            [
              103.7759944,
              1.3166958640000002
            ],
            [
              103.7754012,
              1.31655092
            ]
          ]
        ]
      }
    },
    {
      "type": "Feature",
      "properties": {
        "DISTRICT": "22"
      },
      "geometry": {
        "type": "Polygon",
        "coordinates": [
          [
            [
              103.611319,
              1.243470179
            ],
            [
              103.610803,
              1.274663705
            ],
            [
              103.6361279,
              1.349424055
            ],
            [
              103.6924186,
              1.36608056
            ],
            [
              103.7253247,
              1.354097927
            ],
            [
              103.72638429999999,
              1.353673528
            ],
            [
              103.73096140000001,
              1.351241584
            ],
            [
              103.7528397,
              1.338734734
            ],
            [
              103.7559836,
              1.336936544
            ],
            [
              103.7567601,
              1.336485155
            ],
            [
              103.75720559999999,
              1.33620204
            ],
            [
              103.7580858,
              1.335556336
            ],
            [
              103.7586548,
              1.335093567
            ],
            [
              103.75517370000001,
              1.29798582
            ],
            [
              103.7383542,
              1.2734287020000001
            ],
            [
              103.7280015,
              1.263594301
            ],
            [
              103.6722466,
              1.223058115
            ],
            [
              103.61399300000001,
              1.240617754
            ],
            [
              103.611319,
              1.243470179
            ]
          ]
        ]
      }
    },
    {
      "type": "Feature",
      "properties": {
        "DISTRICT": "23"
      },
      "geometry": {
        "type": "Polygon",
        "coordinates": [
          [
            [
              103.7370315,
              1.355138388
            ],
            [
              103.7326193,
              1.377223799
            ],
            [
              103.7381525,
              1.397609425
            ],
            [
              103.7416061,
              1.4041583780000002
            ],
            [
              103.74631490000002,
              1.404678619
            ],
            [
              103.749002,
              1.404683696
            ],
            [
              103.7567358,
              1.404414015
            ],
            [
              103.7729816,
              1.389896094
            ],
            [
              103.7836915,
              1.372616482
            ],
            [
              103.77698259999998,
              1.36044692
            ],
            [
              103.7683673,
              1.34751993
            ],
            [
              103.7619744,
              1.338372033
            ],
            [
              103.7619067,
              1.3382849559999999
            ],
            [
              103.7618713,
              1.3382490040000001
            ],
            [
              103.7617808,
              1.338179053
            ],
            [
              103.76173829999999,
              1.3381518559999999
            ],
            [
              103.7596655,
              1.336965715
            ],
            [
              103.7587067,
              1.337173446
            ],
            [
              103.7570489,
              1.337678251
            ],
            [
              103.7404803,
              1.3456690390000001
            ],
            [
              103.74022959999999,
              1.3461002119999999
            ],
            [
              103.7384342,
              1.3503176140000002
            ],
            [
              103.7382683,
              1.350823809
            ],
            [
              103.7370315,
              1.355138388
            ]
          ]
        ]
      }
    },
    {
      "type": "Feature",
      "properties": {
        "DISTRICT": "24"
      },
      "geometry": {
        "type": "Polygon",
        "coordinates": [
          [
            [
              103.6869828,
              1.370577625
            ],
            [
              103.6835552,
              1.3728469580000002
            ],
            [
              103.6870425,
              1.390134851
            ],
            [
              103.6993122,
              1.437394474
            ],
            [
              103.7020276,
              1.4401835459999999
            ],
            [
              103.7071434,
              1.4449981680000001
            ],
            [
              103.7172652,
              1.4470744709999999
            ],
            [
              103.72896440000001,
              1.4462969380000001
            ],
            [
              103.73172890000001,
              1.4440519230000002
            ],
            [
              103.7323295,
              1.4398132959999999
            ],
            [
              103.73715250000001,
              1.357881105
            ],
            [
              103.7351733,
              1.3533669
            ],
            [
              103.6869828,
              1.370577625
            ]
          ]
        ]
      }
    },
    {
      "type": "Feature",
      "properties": {
        "DISTRICT": "25"
      },
      "geometry": {
        "type": "Polygon",
        "coordinates": [
          [
            [
              103.74286059999999,
              1.408160047
            ],
            [
              103.73021949999999,
              1.4338470019999998
            ],
            [
              103.73520359999999,
              1.440301782
            ],
            [
              103.8089123,
              1.461605604
            ],
            [
              103.8094389,
              1.461525551
            ],
            [
              103.8094715,
              1.461501641
            ],
            [
              103.8110838,
              1.457673419
            ],
            [
              103.81177009999999,
              1.455280379
            ],
            [
              103.8121262,
              1.451527299
            ],
            [
              103.8117431,
              1.448437675
            ],
            [
              103.81100409999999,
              1.443677585
            ],
            [
              103.7924988,
              1.4036524830000001
            ],
            [
              103.7895772,
              1.402903569
            ],
            [
              103.75452440000001,
              1.3985024169999998
            ],
            [
              103.7531915,
              1.398945064
            ],
            [
              103.74340179999999,
              1.40763201
            ],
            [
              103.74286059999999,
              1.408160047
            ]
          ]
        ]
      }
    },
    {
      "type": "Feature",
      "properties": {
        "DISTRICT": "26"
      },
      "geometry": {
        "type": "Polygon",
        "coordinates": [
          [
            [
              103.8216089,
              1.385518332
            ],
            [
              103.79237420000001,
              1.4179004069999999
            ],
            [
              103.793746,
              1.42077809
            ],
            [
              103.8216483,
              1.411417955
            ],
            [
              103.8324945,
              1.402000875
            ],
            [
              103.8390517,
              1.393594209
            ],
            [
              103.8410366,
              1.3880644969999998
            ],
            [
              103.8415708,
              1.385835341
            ],
            [
              103.83765629999999,
              1.3823296059999999
            ],
            [
              103.8369041,
              1.381727966
            ],
            [
              103.8303415,
              1.37858688
            ],
            [
              103.82837590000001,
              1.378579451
            ],
            [
              103.8216089,
              1.385518332
            ]
          ]
        ]
      }
    },
    {
      "type": "Feature",
      "properties": {
        "DISTRICT": "27"
      },
      "geometry": {
        "type": "Polygon",
        "coordinates": [
          [
            [
              103.82047890000001,
              1.406577838
            ],
            [
              103.7712644,
              1.448676408
            ],
            [
              103.7776941,
              1.4539269030000002
            ],
            [
              103.8029323,
              1.468393439
            ],
            [
              103.80372750000001,
              1.4687847109999999
            ],
            [
              103.80914859999999,
              1.469927416
            ],
            [
              103.8122817,
              1.470067435
            ],
            [
              103.8138058,
              1.4701314769999998
            ],
            [
              103.8145604,
              1.470149055
            ],
            [
              103.81940959999999,
              1.469794795
            ],
            [
              103.8368996,
              1.463378057
            ],
            [
              103.8394838,
              1.4618485819999998
            ],
            [
              103.8396822,
              1.461725825
            ],
            [
              103.84365030000001,
              1.4590379430000002
            ],
            [
              103.85446,
              1.427547542
            ],
            [
              103.84895920000001,
              1.416820404
            ],
            [
              103.8451309,
              1.411459129
            ],
            [
              103.8442145,
              1.411103576
            ],
            [
              103.84403990000001,
              1.4110359909999999
            ],
            [
              103.82047890000001,
              1.406577838
            ]
          ]
        ]
      }
    },
    {
      "type": "Feature",
      "properties": {
        "DISTRICT": "28"
      },
      "geometry": {
        "type": "Polygon",
        "coordinates": [
          [
            [
              103.8505162,
              1.390985511
            ],
            [
              103.8505044,
              1.3910503369999998
            ],
            [
              103.8560418,
              1.404969215
            ],
            [
              103.8580176,
              1.4092885640000001
            ],
            [
              103.8641238,
              1.420378734
            ],
            [
              103.8669725,
              1.423349315
            ],
            [
              103.868175,
              1.424364641
            ],
            [
              103.8897633,
              1.423804221
            ],
            [
              103.8944786,
              1.42155562
            ],
            [
              103.89535040000001,
              1.4208257069999999
            ],
            [
              103.8967762,
              1.418626419
            ],
            [
              103.8970313,
              1.417834873
            ],
            [
              103.8965008,
              1.4146973330000001
            ],
            [
              103.88005759999999,
              1.386470694
            ],
            [
              103.87594490000001,
              1.3800665269999999
            ],
            [
              103.8628945,
              1.379047231
            ],
            [
              103.8600728,
              1.38117508
            ],
            [
              103.8513083,
              1.38827146
            ],
            [
              103.8508285,
              1.3894279059999999
            ],
            [
              103.8507915,
              1.3895975
            ],
            [
              103.8506792,
              1.390126133
            ],
            [
              103.85063079999999,
              1.390356194
            ],
            [
              103.8505162,
              1.390985511
            ]
          ]
        ]
      }
    },
    {
      "type": "Feature",
      "properties": {
        "DISTRICT": "null"
      },
      "geometry": {
        "type": "Polygon",
        "coordinates": [
          [
            [
              103.7958397,
              1.277170298
            ],
            [
              103.7586479,
              1.4336294969999999
            ],
            [
              103.99668299999999,
              1.3753154669999998
            ],
            [
              103.9890667,
              1.35496949
            ],
            [
              103.9687541,
              1.315968577
            ],
            [
              103.89969659999998,
              1.296657805
            ],
            [
              103.7958397,
              1.277170298
            ]
          ]
        ]
      }
    }
  ]
}