{
  "type": "FeatureCollection",
  "features": [
    {
      "type": "Feature",
      "properties": {
        "id": "223329F6AEEA82D3",
        "name": "District 1",
        "postalSectors": [
          "01",
          "02",
          "03",
          "04",
          "05",
          "06"
        ],
        "description": "Postal codes starting with 01, 02, 03, 04, 05 and 06.\n\nRaffles Place: https://www.penang-traveltips.com/singapore/raffles-place.htm\nMarina Bay: https://www.penang-traveltips.com/singapore/marina-bay.htm\nMarina South: https://www.penang-traveltips.com/singapore/marina-south.htm\nChinatown: https://www.penang-traveltips.com/singapore/chinatown.htm\nBoat Quay: https://www.penang-traveltips.com/singapore/boat-quay.htm",
        "coveredAreas": [
          "Raffles Place",
          "Marina Bay",
          "Marina South",
          "Chinatown",
          "Boat Quay"
        ],
        "districtNumber": 1,
        "district": "1"
      },
      "geometry": {
        "type": "Point",
        "coordinates": [
          103.85263652807016,
          1.2852025210526314
        ]
      }
    },
    {
      "type": "Feature",
      "properties": {
        "id": "22332D1E619F55C8",
        "name": "District 2",
        "description": "Postal codes starting with 07 and 08.\n\nTanjong Pagar: https://www.penang-traveltips.com/singapore/tanjong-pagar.htm\nKeppel Road: https://www.penang-traveltips.com/singapore/keppel-road.htm\nCantonment Road: https://www.penang-traveltips.com/singapore/cantonment-road.htm\nNeil Road: https://www.penang-traveltips.com/singapore/neil-road.htm\nShenton Way (partial): https://www.penang-traveltips.com/singapore/shenton-way.htm\nAnson Road (partial): https://www.penang-traveltips.com/singapore/anson-road.htm",
        "postalSectors": [
          "07",
          "08"
        ],
        "coveredAreas": [
          "Tanjong Pagar",
          "Keppel Road",
          "Cantonment Road",
          "Neil Road",
          "Shenton Way (partial)",
          "Anson Road (partial)"
        ],
        "districtNumber": 2,
        "district": "2"
      },
      "geometry": {
        "type": "Point",
        "coordinates": [
          103.84153738611113,
          1.2735527833333333
        ]
      }
    },
    {
      "type": "Feature",
      "properties": {
        "id": "223331DBAA9FBE25",
        "name": "District 3",
        "description": "Postal codes starting with 14, 15 and 16.\n\nBukit Merah: https://www.penang-traveltips.com/singapore/bukit-merah.htm\nTiong Bahru: https://www.penang-traveltips.com/singapore/tiong-bahru.htm\nJalan Bukit Merah: https://www.penang-traveltips.com/singapore/jalan-bukit-merah.htm\nAlexandra Road: https://www.penang-traveltips.com/singapore/alexandra-road.htm\nQueenstown: https://www.penang-traveltips.com/singapore/queenstown.htm",
        "postalSectors": [
          14,
          15,
          16
        ],
        "coveredAreas": [
          "Bukit Merah",
          "Tiong Bahru",
          "Jalan Bukit Merah",
          "Alexandra Road",
          "Queenstown"
        ],
        "districtNumber": 3,
        "district": "3"
      },
      "geometry": {
        "type": "Point",
        "coordinates": [
          103.82088441358025,
          1.2912684197530864
        ]
      }
    },
    {
      "type": "Feature",
      "properties": {
        "id": "223338A3593A9B06",
        "name": "District 4",
        "description": "Postal codes starting with 09 and 10.",
        "postalSectors": [
          "09",
          10
        ],
        "coveredAreas": [
          "Sentosa",
          "Harbourfront",
          "Mount Faber"
        ],
        "districtNumber": 4,
        "district": "4"
      },
      "geometry": {
        "type": "Point",
        "coordinates": [
          103.82051132093022,
          1.2641621813953487
        ]
      }
    },
    {
      "type": "Feature",
      "properties": {
        "id": "22333C65BBFA83F7",
        "name": "District 5",
        "description": "Postal code starting with 11, 12 and 13.\n\nClementi: https://www.penang-traveltips.com/singapore/clementi.htm\nQueenstown: https://www.penang-traveltips.com/singapore/queenstown.htm",
        "postalSectors": [
          11,
          12,
          13
        ],
        "coveredAreas": [
          "Clementi",
          "Queenstown"
        ],
        "districtNumber": 5,
        "district": "5"
      },
      "geometry": {
        "type": "Point",
        "coordinates": [
          103.77437230579712,
          1.3008264594202896
        ]
      }
    },
    {
      "type": "Feature",
      "properties": {
        "id": "22333F2A41BD631C",
        "name": "District 6",
        "description": "Postal code starting with 17.\n\nMuseum Planning Area: https://www.penang-traveltips.com/singapore/museum-planning-area.htm\nFort Canning: https://www.penang-traveltips.com/singapore/fort-canning.htm\nNorth Bridge Road: https://www.penang-traveltips.com/singapore/north-bridge-road.htm\nRaffles City: https://www.penang-traveltips.com/singapore/raffles-city.htm",
        "postalSectors": [
          17
        ],
        "coveredAreas": [
          "Museum Planning Area",
          "Fort Canning",
          "North Bridge Road",
          "Raffles City"
        ],
        "districtNumber": 6,
        "district": "6"
      },
      "geometry": {
        "type": "Point",
        "coordinates": [
          103.84905543589745,
          1.2927684051282053
        ]
      }
    },
    {
      "type": "Feature",
      "properties": {
        "id": "223341C90CE7F57C",
        "name": "District 7",
        "description": "Postal code starting with 18 and 19.\n\nKampong Glam: https://www.penang-traveltips.com/singapore/kampong-glam.htm\nMiddle Road: https://www.penang-traveltips.com/singapore/middle-road.htm\nBeach Road (partial): https://www.penang-traveltips.com/singapore/beach-road.htm\nBencoolen: https://www.penang-traveltips.com/singapore/bencoolen.htm\nWaterloo Street: https://www.penang-traveltips.com/singapore/waterloo-street.htm\nNicoll Highway: https://www.penang-traveltips.com/singapore/nicoll-highway.htm",
        "postalSectors": [
          18,
          19
        ],
        "coveredAreas": [
          "Kampong Glam",
          "Middle Road",
          "Beach Road (partial)",
          "Bencoolen",
          "Waterloo Street",
          "Nicoll Highway"
        ],
        "districtNumber": 7,
        "district": "7"
      },
      "geometry": {
        "type": "Point",
        "coordinates": [
          103.85818625333333,
          1.3009040577777775
        ]
      }
    },
    {
      "type": "Feature",
      "properties": {
        "id": "2233452A26C4D3BB",
        "name": "District 8",
        "description": "Postal code starting with 20 and 21.\n\nLittle India: https://www.penang-traveltips.com/singapore/little-india.htm\nFarrer Park: https://www.penang-traveltips.com/singapore/farrer-park.htm\nSerangoon Road: https://www.penang-traveltips.com/singapore/serangoon-road.htm\nJalan Besar: https://www.penang-traveltips.com/singapore/jalan-besar.htm",
        "postalSectors": [
          20,
          21
        ],
        "coveredAreas": [
          "Little India",
          "Farrer Park",
          "Serangoon Road",
          "Jalan Besar"
        ],
        "districtNumber": 8,
        "district": "8"
      },
      "geometry": {
        "type": "Point",
        "coordinates": [
          103.8548294325,
          1.3098751549999998
        ]
      }
    },
    {
      "type": "Feature",
      "properties": {
        "id": "223349680DDE275D",
        "name": "District 9",
        "description": "Postal code starting with 22 and 23.\n\nOrchard Road: https://www.penang-traveltips.com/singapore/orchard-road.htm\nRiver Valley Road: https://www.penang-traveltips.com/singapore/river-valley-road.htm\nScotts Road: https://www.penang-traveltips.com/singapore/scotts-road.htm\nCairnhill Road: https://www.penang-traveltips.com/singapore/cairnhill-road.htm",
        "postalSectors": [
          22,
          23
        ],
        "coveredAreas": [
          "Orchard Road",
          "River Valley Road",
          "Scotts Road",
          "Cairnhill Road"
        ],
        "districtNumber": 9,
        "district": "9"
      },
      "geometry": {
        "type": "Point",
        "coordinates": [
          103.83715498082191,
          1.301662508219178
        ]
      }
    },
    {
      "type": "Feature",
      "properties": {
        "id": "223350FD53B2D43F",
        "name": "District 10",
        "description": "Postal code starting with 24, 25, 26 and 27.\n\nTanglin: https://www.penang-traveltips.com/singapore/tanglin.htm\nHolland Road: https://www.penang-traveltips.com/singapore/holland-road.htm\nSingapore Botanic Gardens: https://www.penang-traveltips.com/singapore/singapore-botanic-gardens.htm",
        "postalSectors": [
          24,
          25,
          26,
          27
        ],
        "coveredAreas": [
          "Tanglin",
          "Holland Road",
          "Singapore Botanic Gardens"
        ],
        "districtNumber": 10,
        "district": "10"
      },
      "geometry": {
        "type": "Point",
        "coordinates": [
          103.81072100212764,
          1.3090025170212767
        ]
      }
    },
    {
      "type": "Feature",
      "properties": {
        "id": "2233552EF74A901C",
        "name": "District 11",
        "description": "Postal code starting with 28, 29 and 30.\n\nNovena: https://www.penang-traveltips.com/singapore/novena.htm\nThomson: https://www.penang-traveltips.com/singapore/thomson.htm",
        "postalSectors": [
          28,
          29,
          30
        ],
        "coveredAreas": [
          "Novena",
          "Thomson"
        ],
        "districtNumber": 11,
        "district": "11"
      },
      "geometry": {
        "type": "Point",
        "coordinates": [
          103.82973424736844,
          1.332256213157894
        ]
      }
    },
    {
      "type": "Feature",
      "properties": {
        "id": "2233589EDD66261A",
        "name": "District 12 ",
        "description": "Postal code starting with 31, 32 and 33.\n\nToa Payoh: https://www.penang-traveltips.com/singapore/toa-payoh.htm\nSerangoon: https://www.penang-traveltips.com/singapore/serangoon.htm",
        "postalSectors": [
          31,
          32,
          33
        ],
        "coveredAreas": [
          "Toa Payoh",
          "Serangoon"
        ],
        "districtNumber": 12,
        "district": "12"
      },
      "geometry": {
        "type": "Point",
        "coordinates": [
          103.8557270152778,
          1.3249837166666665
        ]
      }
    },
    {
      "type": "Feature",
      "properties": {
        "id": "22335BE8B71BEBAE",
        "name": "District 13",
        "description": "Postal code starting with 34, 35, 36 and 37.\n\nMacpherson Road: https://www.penang-traveltips.com/singapore/macpherson-road.htm",
        "postalSectors": [
          34,
          35,
          36,
          37
        ],
        "coveredAreas": [
          "Macpherson Road"
        ],
        "districtNumber": 13,
        "district": "13"
      },
      "geometry": {
        "type": "Point",
        "coordinates": [
          103.87600098548386,
          1.3351312290322586
        ]
      }
    },
    {
      "type": "Feature",
      "properties": {
        "id": "2233608D54429437",
        "name": "District 14",
        "description": "Postal code starting with 38, 39, 40 and 41.\n\nGeylang: https://www.penang-traveltips.com/singapore/geylang.htm\nOld Airport Road: https://www.penang-traveltips.com/singapore/old-airport-road.htm\nGuillemard Road: https://www.penang-traveltips.com/singapore/guillemard-road.htm",
        "coveredAreas": [
          "Geylang",
          "Old Airport Road",
          "Guillemard Road"
        ],
        "districtNumber": 14,
        "district": "14"
      },
      "geometry": {
        "type": "Point",
        "coordinates": [
          103.89463739761901,
          1.3242488119047617
        ]
      }
    },
    {
      "type": "Feature",
      "properties": {
        "id": "2233633C7ECD2379",
        "name": "District 15",
        "description": "Postal code starting with 42, 43, 44 and 45.\n\nTanjong Katong Road: https://www.penang-traveltips.com/singapore/tanjong-katong-road.htm\nMountbatten Road: https://www.penang-traveltips.com/singapore/mountbatten-road.htm",
        "postalSectors": [
          42,
          43,
          44,
          45
        ],
        "coveredAreas": [
          "Tanjong Katong Road",
          "Mountbatten Road"
        ],
        "districtNumber": 15,
        "district": "15"
      },
      "geometry": {
        "type": "Point",
        "coordinates": [
          103.89952557045454,
          1.3040042204545457
        ]
      }
    },
    {
      "type": "Feature",
      "properties": {
        "id": "223366CA06CE0012",
        "name": "District 16",
        "description": "Postal code starting with 46, 47 and 48.",
        "postalSectors": [
          46,
          47,
          48
        ],
        "coveredAreas": [],
        "districtNumber": 16,
        "district": "16"
      },
      "geometry": {
        "type": "Point",
        "coordinates": [
          103.93853491643837,
          1.3321194904109581
        ]
      }
    },
    {
      "type": "Feature",
      "properties": {
        "id": "22336B9E3C3BC88B",
        "name": "District 17 ",
        "description": "Postal code starting with 49, 50 and 81.\n\nChangi: https://www.penang-traveltips.com/singapore/changi.htm",
        "postalSectors": [
          49,
          50,
          81
        ],
        "coveredAreas": [
          "Changi"
        ],
        "districtNumber": 17,
        "district": "17"
      },
      "geometry": {
        "type": "Point",
        "coordinates": [
          104.00039718310893,
          1.3660263285637244
        ]
      }
    },
    {
      "type": "Feature",
      "properties": {
        "id": "22336ED0C116575A",
        "name": "District 18",
        "description": "Postal code starting with 51 and 52.\n\nTampines: https://www.penang-traveltips.com/singapore/tampines.htm\nPasir Ris: https://www.penang-traveltips.com/singapore/pasir-ris.htm",
        "postalSectors": [
          51,
          52
        ],
        "coveredAreas": [
          "Tampines",
          "Pasir Ris"
        ],
        "districtNumber": 18,
        "district": "18"
      },
      "geometry": {
        "type": "Point",
        "coordinates": [
          103.94296585254239,
          1.3667767067796608
        ]
      }
    },
    {
      "type": "Feature",
      "properties": {
        "id": "223374011BEC33D6",
        "name": "District 19",
        "description": "Postal code starting with 53, 54, 55 and 82.\n\nPaya Lebar: https://www.penang-traveltips.com/singapore/paya-lebar.htm\nHougang: https://www.penang-traveltips.com/singapore/hougang.htm\nPunggol: https://www.penang-traveltips.com/singapore/punggol.htm\nSengkang: https://www.penang-traveltips.com/singapore/sengkang.htm",
        "postalSectors": [
          53,
          54,
          55,
          82
        ],
        "coveredAreas": [
          "Paya Lebar",
          "Hougang",
          "Punggol",
          "Sengkang"
        ],
        "districtNumber": 19,
        "district": "19"
      },
      "geometry": {
        "type": "Point",
        "coordinates": [
          103.88964593333333,
          1.373385971875
        ]
      }
    },
    {
      "type": "Feature",
      "properties": {
        "id": "2233908AE575AA72",
        "name": "District 20",
        "description": "Postal code starting with 56 and 57.\n\nAng Mo Kio: https://www.penang-traveltips.com/singapore/ang-mo-kio.htm\nBishan: https://www.penang-traveltips.com/singapore/bishan.htm",
        "postalSectors": [
          56,
          57
        ],
        "coveredAreas": [
          "Ang Mo Kio",
          "Bishan"
        ],
        "districtNumber": 20,
        "district": "20"
      },
      "geometry": {
        "type": "Point",
        "coordinates": [
          103.83897656228072,
          1.3699086245614036
        ]
      }
    },
    {
      "type": "Feature",
      "properties": {
        "id": "2233945782A9C6D3",
        "name": "District 21",
        "description": "Postal code starting with 58 and 59.\n\nBukit Timah: https://www.penang-traveltips.com/singapore/bukit-timah.htm\nCentral Water Catchment: https://www.penang-traveltips.com/singapore/central-water-catchment.htm",
        "postalSectors": [
          58,
          59
        ],
        "coveredAreas": [
          "Bukit Timah",
          "Central Water Catchment"
        ],
        "districtNumber": 21,
        "district": "21"
      },
      "geometry": {
        "type": "Point",
        "coordinates": [
          103.77236169090907,
          1.340126255844156
        ]
      }
    },
    {
      "type": "Feature",
      "properties": {
        "id": "22339C83FE82FD0F",
        "name": "District 22",
        "description": "Postal code starting with 60, 61, 62, 63 and 64.\n\nJurong: https://www.penang-traveltips.com/singapore/jurong.htm\nPioneer: https://www.penang-traveltips.com/singapore/pioneer.htm\nTuas: https://www.penang-traveltips.com/singapore/tuas.htm",
        "postalSectors": [
          60,
          61,
          62,
          63
        ],
        "coveredAreas": [
          "Jurong",
          "Pioneer",
          "Tuas"
        ],
        "districtNumber": 22,
        "district": "22"
      },
      "geometry": {
        "type": "Point",
        "coordinates": [
          103.67383073998796,
          1.2979980739117443
        ]
      }
    },
    {
      "type": "Feature",
      "properties": {
        "id": "2233A00DC7495B54",
        "name": "District 23",
        "description": "Postal code starting with 65, 66, 67 and 68.\n\nChoa Chu Kang: https://www.penang-traveltips.com/singapore/choa-chu-kang.htm\nBukit Batok: https://www.penang-traveltips.com/singapore/bukit-batok.htm\nBukit Panjang: https://www.penang-traveltips.com/singapore/bukit-panjang.htm",
        "postalSectors": [
          65,
          66,
          67,
          68
        ],
        "coveredAreas": [
          "Choa Chu Kang",
          "Bukit Batok",
          "Bukit Panjang"
        ],
        "districtNumber": 23,
        "district": "23"
      },
      "geometry": {
        "type": "Point",
        "coordinates": [
          103.75896513225804,
          1.3691978209677425
        ]
      }
    },
    {
      "type": "Feature",
      "properties": {
        "id": "2233A20D107DBD11",
        "name": "District 24",
        "description": "Postal code starting with 69, 70 and 71.\n\nLim Chu Kang: https://www.penang-traveltips.com/singapore/lim-chu-kang.htm",
        "postalSectors": [
          69,
          70,
          71
        ],
        "coveredAreas": [
          "Lim Chu Kang"
        ],
        "districtNumber": 24,
        "district": "24"
      },
      "geometry": {
        "type": "Point",
        "coordinates": [
          103.7027645138889,
          1.393007897222222
        ]
      }
    },
    {
      "type": "Feature",
      "properties": {
        "id": "2233A56E49EEAA59",
        "name": "District 25",
        "description": "Postal code starting with 72 and 73.\n\nWoodlands: https://www.penang-traveltips.com/singapore/woodlands.htm\nSungei Kadut: https://www.penang-traveltips.com/singapore/sungei-kadut.htm\nMarsiling: https://www.penang-traveltips.com/singapore/marsiling.htm",
        "postalSectors": [
          72,
          73
        ],
        "coveredAreas": [
          "Woodlands",
          "Sungei Kadut",
          "Marsiling"
        ],
        "districtNumber": 25,
        "district": "25"
      },
      "geometry": {
        "type": "Point",
        "coordinates": [
          103.78436645000004,
          1.4284885962962965
        ]
      }
    },
    {
      "type": "Feature",
      "properties": {
        "id": "2233A830E30F6BBE",
        "name": "District 26",
        "description": "Postal code starting with 77 and 78.\n\nUpper Thomson, Springleaf\n",
        "postalSectors": [
          77,
          78
        ],
        "coveredAreas": [
          "Upper Thomson",
          "Springleaf"
        ],
        "districtNumber": 26,
        "district": "26"
      },
      "geometry": {
        "type": "Point",
        "coordinates": [
          103.81920984999998,
          1.3938095553571428
        ]
      }
    },
    {
      "type": "Feature",
      "properties": {
        "id": "2233AAD69F91AAD1",
        "name": "District 27",
        "description": "Postal code starting with 75 and 76.\n\nYishun: https://www.penang-traveltips.com/singapore/yishun.htm\nMandai: https://www.penang-traveltips.com/singapore/mandai.htm\nSembawang: https://www.penang-traveltips.com/singapore/sembawang.htm",
        "postalSectors": [
          75,
          76
        ],
        "coveredAreas": [
          "Yishun",
          "Mandai",
          "Sembawang"
        ],
        "districtNumber": 27,
        "district": "27"
      },
      "geometry": {
        "type": "Point",
        "coordinates": [
          103.81199965967743,
          1.440900972580645
        ]
      }
    },
    {
      "type": "Feature",
      "properties": {
        "id": "2233AD05677057E7",
        "name": "District 28",
        "description": "Postal code starting with 79 and 80.\n\nSeletar: https://www.penang-traveltips.com/singapore/seletar.htm",
        "postalSectors": [
          79,
          80
        ],
        "coveredAreas": [
          "Seletar"
        ],
        "districtNumber": 28,
        "district": "28"
      },
      "geometry": {
        "type": "Point",
        "coordinates": [
          103.87170306521739,
          1.40188475
        ]
      }
    }
  ]
}